{"fetched_at":"2026-07-17T17:38:41.400Z","source":"https://celestrak.org/NORAD/elements/gp.php?NAME=TIGER&FORMAT=JSON","constellation":"oq-technology","records":[{"OBJECT_NAME":"TIGER-8","OBJECT_ID":"2024-043Y","EPOCH":"2026-07-16T22:44:47.189760","CLASSIFICATION_TYPE":"U","MEAN_MOTION":15.45186811,"ECCENTRICITY":0.00089199,"INCLINATION":97.5577,"RA_OF_ASC_NODE":347.7639,"ARG_OF_PERICENTER":97.4046,"MEAN_ANOMALY":262.8216,"EPHEMERIS_TYPE":0,"NORAD_CAT_ID":59120,"ELEMENT_SET_NO":999,"REV_AT_EPOCH":13238,"BSTAR":0.00011115922,"MEAN_MOTION_DOT":0.00005185,"MEAN_MOTION_DDOT":0},{"OBJECT_NAME":"TIGER-7","OBJECT_ID":"2024-043AV","EPOCH":"2026-07-17T05:39:15.249888","CLASSIFICATION_TYPE":"U","MEAN_MOTION":15.49376141,"ECCENTRICITY":0.00067434,"INCLINATION":97.5519,"RA_OF_ASC_NODE":350.583,"ARG_OF_PERICENTER":71.0694,"MEAN_ANOMALY":289.1287,"EPHEMERIS_TYPE":0,"NORAD_CAT_ID":59141,"ELEMENT_SET_NO":999,"REV_AT_EPOCH":13262,"BSTAR":0.00012046181,"MEAN_MOTION_DOT":0.00006509,"MEAN_MOTION_DDOT":0}]}
