TIGER-8                 
1 59120U 24043Y   26197.94776840  .00005185  00000+0  11116-3 0  9991
2 59120  97.5577 347.7639 0008919  97.4046 262.8216 15.45186811132389
TIGER-7                 
1 59141U 24043AV  26198.23559317  .00006509  00000+0  12046-3 0  9999
2 59141  97.5519 350.5830 0006743  71.0694 289.1287 15.49376141132621
